     2.10           N: GPS NAV DATA                         RINEX VERSION / TYPE
teqc  2008Oct2      gpsops              20090107 00:05:39UTCPGM / RUN BY / DATE
Linux 2.4.20-8|Pentium IV|gcc -static|Linux|486/DX+         COMMENT
soc2rnx ver 1.20    gpsops               7-Jan-2009 00:05:35COMMENT
Forced Modulo Decimation to 30 seconds                      COMMENT
MADR                                    MARKER NAME         COMMENT
13407S012                               MARKER NUMBER       COMMENT
4849202.3940 -360328.9929 4114913.1862                      COMMENT
                                                            COMMENT
This data is provided as a public service by NASA/JPL.      COMMENT
No warranty is expressed or implied regarding suitability   COMMENT
for use.  For further information, contact:                 COMMENT
Dave Stowers, NASA/JPL m/s 238-600                          COMMENT
4800 Oak Grove Drive, Pasadena CA 91109 USA                 COMMENT
                                                            END OF HEADER
17 09  1  6 18  0  0.0 4.361988976598D-05 9.094947017729D-13 0.000000000000D+00
    8.400000000000D+01-1.190625000000D+01 4.969135555870D-09-5.063384425257D-01
   -6.332993507385D-07 4.095218027942D-03 7.357448339462D-06 5.153618019104D+03
    2.376000000000D+05 5.960464477539D-08 1.078460506026D+00 1.676380634308D-08
    9.593572705211D-01 2.373125000000D+02-2.778981036446D+00-8.105337619846D-09
   -2.750114553310D-10 1.000000000000D+00 1.513000000000D+03 0.000000000000D+00
    2.800000000000D+00 0.000000000000D+00-1.024454832077D-08 8.400000000000D+01
    2.304000000000D+05
20 09  1  6 18  0  0.0 9.437836706638D-05-1.023181539495D-12 0.000000000000D+00
    8.300000000000D+01 1.175937500000D+02 4.931276836045D-09 8.404382997886D-01
    6.016343832016D-06 3.813231363893D-03 4.440546035767D-06 5.153708948135D+03
    2.376000000000D+05-5.960464477539D-08 3.136231695199D+00-2.980232238770D-08
    9.443614005343D-01 2.837187500000D+02 1.313582095350D+00-8.516426171906D-09
    5.035924052165D-11 1.000000000000D+00 1.513000000000D+03 0.000000000000D+00
    2.000000000000D+00 0.000000000000D+00-6.519258022308D-09 8.300000000000D+01
    2.304000000000D+05
23 09  1  6 18  0  0.0 3.845007158816D-04 9.094947017729D-13 0.000000000000D+00
    6.000000000000D+01-6.281250000000D+01 4.403040547169D-09-1.813609633629D+00
   -3.332272171974D-06 5.761112319306D-03 2.654269337654D-06 5.153658344269D+03
    2.376000000000D+05-5.587935447693D-08-2.073672089040D+00-1.862645149231D-08
    9.708649352329D-01 3.357500000000D+02 2.886122663759D+00-8.293559745767D-09
   -1.042900583853D-10 1.000000000000D+00 1.513000000000D+03 0.000000000000D+00
    2.000000000000D+00 0.000000000000D+00-2.002343535423D-08 6.000000000000D+01
    2.304000000000D+05
28 09  1  6 18  0  0.0-2.376502379775D-05 0.000000000000D+00 0.000000000000D+00
    7.500000000000D+01-1.415625000000D+01 4.667337270474D-09-9.565689823091D-02
   -6.463378667831D-07 1.447004114743D-02 8.163973689079D-06 5.153631875992D+03
    2.376000000000D+05-8.381903171539D-08 4.525330953056D-02 1.769512891769D-07
    9.657833342153D-01 2.275625000000D+02-2.069689329680D+00-8.183912321369D-09
    4.546617956316D-10 1.000000000000D+00 1.513000000000D+03 0.000000000000D+00
    2.800000000000D+00 0.000000000000D+00-1.024454832077D-08 7.500000000000D+01
    2.304000000000D+05
31 09  1  6 18  0  0.0-4.663784056902D-05-1.477928890381D-12 0.000000000000D+00
    4.400000000000D+01-9.475000000000D+01 3.993380626046D-09 2.824990665846D+00
   -4.790723323822D-06 7.092956337146D-03 9.363517165184D-06 5.153621665955D+03
    2.376000000000D+05 4.842877388000D-08-1.033504942749D+00 7.450580596924D-09
    9.708844505601D-01 2.023125000000D+02-1.213495555784D+00-7.682462862558D-09
    1.689356082747D-10 1.000000000000D+00 1.513000000000D+03 0.000000000000D+00
    2.800000000000D+00 0.000000000000D+00-1.303851604462D-08 4.400000000000D+01
    2.304000000000D+05
32 09  1  6 18  0  0.0 3.053280524909D-04-2.501110429876D-12 0.000000000000D+00
    1.040000000000D+02 1.088750000000D+02 4.322322899241D-09-2.600063513322D+00
    5.656853318214D-06 1.370371505618D-02 3.475695848465D-06 5.153671871185D+03
    2.376000000000D+05 6.519258022308D-08-3.040437863447D+00 1.005828380585D-07
    9.663505689972D-01 3.114687500000D+02-1.218054018759D+00-7.999618930524D-09
    1.089331089298D-10 1.000000000000D+00 1.513000000000D+03 0.000000000000D+00
    2.000000000000D+00 0.000000000000D+00-3.259629011154D-09 1.040000000000D+02
    2.304000000000D+05
 4 09  1  6 18  0  0.0-2.905130386353D-04-1.318767317571D-11 0.000000000000D+00
    9.200000000000D+01 6.521875000000D+01 4.805557313608D-09 1.267029809654D+00
    3.719702363014D-06 8.622013730928D-03 1.116469502449D-05 5.153660837173D+03
    2.376000000000D+05-1.024454832077D-07 2.117676702901D+00 9.313225746155D-08
    9.410631741900D-01 1.538437500000D+02 4.622567431231D-01-8.113552247732D-09
   -4.753769442150D-10 1.000000000000D+00 1.513000000000D+03 0.000000000000D+00
    2.800000000000D+00 0.000000000000D+00-6.053596735001D-09 9.200000000000D+01
    2.310300000000D+05
25 09  1  6 18  0  0.0 1.552379690111D-04 2.705746737774D-11 0.000000000000D+00
    6.500000000000D+01-1.132500000000D+02 4.150887186827D-09 1.119782681112D+00
   -5.966052412987D-06 1.176756795030D-02 8.799135684967D-06 5.153686807632D+03
    2.376000000000D+05-2.235174179077D-08-1.125510615429D+00-2.682209014893D-07
    9.677740321759D-01 2.152187500000D+02-1.240262202150D+00-7.979975255143D-09
    1.685784505406D-10 1.000000000000D+00 1.513000000000D+03 0.000000000000D+00
    2.800000000000D+00 0.000000000000D+00-7.450580596924D-09 6.500000000000D+01
    2.341500000000D+05
 7 09  1  6 18  0  0.0 2.343580126762D-05-1.136868377216D-13 0.000000000000D+00
    3.600000000000D+01-1.092812500000D+02 4.149458555890D-09 2.906080552914D+00
   -5.535781383514D-06 2.306664246134D-03 9.242445230484D-06 5.153688982010D+03
    2.376000000000D+05-4.842877388000D-08-1.030713714072D+00 4.284083843231D-08
    9.654654450425D-01 2.033125000000D+02 2.907747905017D+00-7.832111953186D-09
    2.139374827835D-10 1.000000000000D+00 1.513000000000D+03 0.000000000000D+00
    2.000000000000D+00 0.000000000000D+00-1.071020960808D-08 3.600000000000D+01
    2.360100000000D+05
 4 09  1  6 17 59 44.0-2.905190922320D-04-1.330136001343D-11 0.000000000000D+00
    6.000000000000D+00 6.521875000000D+01 4.805557313608D-09 1.264696870787D+00
    3.717839717865D-06 8.622012333944D-03 1.116469502449D-05 5.153660839081D+03
    2.375840000000D+05-1.024454832077D-07 2.117676846267D+00 9.313225746155D-08
    9.410631683383D-01 1.538437500000D+02 4.622558975564D-01-8.113552247732D-09
   -4.750197864808D-10 1.000000000000D+00 1.513000000000D+03 0.000000000000D+00
    2.000000000000D+00 0.000000000000D+00-6.053596735001D-09 6.000000000000D+00
    2.374500000000D+05
13 09  1  6 20  0  0.0 2.839886583388D-04 1.477928890381D-12 0.000000000000D+00
    5.000000000000D+01-6.193750000000D+01 3.802301238252D-09 1.743482696652D-01
   -3.326684236526D-06 3.648945013992D-03 3.401190042496D-06 5.153771692276D+03
    2.448000000000D+05-7.823109626770D-08-2.025038091399D+00 3.539025783539D-08
    9.951831277947D-01 3.310937500000D+02 1.509184965737D+00-8.058549956666D-09
   -2.185805333280D-10 1.000000000000D+00 1.513000000000D+03 0.000000000000D+00
    2.000000000000D+00 0.000000000000D+00-1.117587089539D-08 5.000000000000D+01
    2.376000000000D+05
 7 09  1  6 20  0  0.0 2.343486994505D-05-1.136868377216D-13 0.000000000000D+00
    4.300000000000D+01-1.049687500000D+02 4.154815921903D-09-2.326929696156D+00
   -5.392357707024D-06 2.307860180736D-03 9.797513484955D-06 5.153686845779D+03
    2.448000000000D+05-4.842877388000D-08-1.030770103712D+00 2.048909664154D-08
    9.654670045132D-01 1.944687500000D+02 2.907742923781D+00-7.831754795452D-09
    2.189376910622D-10 1.000000000000D+00 1.513000000000D+03 0.000000000000D+00
    2.000000000000D+00 0.000000000000D+00-1.071020960808D-08 4.300000000000D+01
    2.376000000000D+05
11 09  1  6 20  0  0.0 1.127133145928D-05-1.023181539495D-12 0.000000000000D+00
    5.800000000000D+01 4.034375000000D+01 6.074538743207D-09-2.480212808602D+00
    1.883134245872D-06 9.119703201577D-03 9.799376130104D-06 5.153666143417D+03
    2.448000000000D+05 1.117587089539D-07 1.906027947223D+00-1.937150955200D-07
    8.896877938792D-01 1.515000000000D+02 6.743733707235D-01-8.554642049465D-09
   -3.443000557650D-10 1.000000000000D+00 1.513000000000D+03 0.000000000000D+00
    2.000000000000D+00 0.000000000000D+00-1.210719347000D-08 5.800000000000D+01
    2.376000000000D+05
 4 09  1  6 19 59 44.0-2.906145527959D-04-1.330136001343D-11 0.000000000000D+00
    1.300000000000D+01 7.587500000000D+01 4.875203071777D-09 2.315027971053D+00
    3.827735781670D-06 8.622679393739D-03 1.139938831329D-05 5.153658380508D+03
    2.447840000000D+05-2.030283212662D-07 2.117618102791D+00-7.264316082001D-08
    9.410604326815D-01 1.500312500000D+02 4.621165824048D-01-7.985332621156D-09
   -3.835874065266D-10 1.000000000000D+00 1.513000000000D+03 0.000000000000D+00
    2.000000000000D+00 0.000000000000D+00-6.053596735001D-09 1.300000000000D+01
    2.376000000000D+05
17 09  1  6 20  0  0.0 4.362687468529D-05 9.094947017729D-13 0.000000000000D+00
    8.700000000000D+01-6.406250000000D+00 4.940920094869D-09 5.438454091842D-01
   -3.632158041000D-07 4.096068907529D-03 7.182359695435D-06 5.153619642258D+03
    2.448000000000D+05 3.539025783539D-08 1.078402189723D+00 4.470348358154D-08
    9.593552868042D-01 2.404062500000D+02-2.778947139171D+00-8.098551622896D-09
   -2.857261873569D-10 1.000000000000D+00 1.513000000000D+03 0.000000000000D+00
    2.800000000000D+00 0.000000000000D+00-1.024454832077D-08 8.700000000000D+01
    2.376000000000D+05
